{"type": "FeatureCollection", "features": [ {"type": "Feature", "properties": {"norad_id": 30648, "name": "FENGYUN 1C DEB", "group": "fengyun-1c-debris", "lat": -11.809455730014092, "lon": -99.70588484848979, "alt_km": 726.1629402931385, "timestamp": "2025-12-13T10:41:26.043930+00:00", "meta": {"OBJECT_NAME": "FENGYUN 1C DEB", "OBJECT_ID": "1999-025APF", "EPOCH": "2025-12-13T00:40:51.988800", "MEAN_MOTION": 14.4813101, "ECCENTRICITY": 0.00343934, "INCLINATION": 98.6412, "RA_OF_ASC_NODE": 81.6899, "ARG_OF_PERICENTER": 126.8373, "MEAN_ANOMALY": 51.6315, "EPHEMERIS_TYPE": 0, "CLASSIFICATION_TYPE": "U", "NORAD_CAT_ID": 30648, "ELEMENT_SET_NO": 999, "REV_AT_EPOCH": 97870, "BSTAR": 0.0032480357, "MEAN_MOTION_DOT": 0.00012158, "MEAN_MOTION_DDOT": 0}, "tle": {"line1": "1 30648U 99025APF 25347.02837950  .00012158  00000+0  32480-2 0  9996", "line2": "2 30648  98.6412  81.6899 0034393 126.8373  51.6315 14.48131010978701"}}, "geometry": {"type": "Point", "coordinates": [-99.70588484848979, -11.809455730014092]}}, {"type": "Feature", "properties": {"norad_id": 30649, "name": "FENGYUN 1C DEB", "group": "fengyun-1c-debris", "lat": -63.13251989873075, "lon": 100.58467264562812, "alt_km": 822.1374039659859, "timestamp": "2025-12-13T10:41:26.043941+00:00", "meta": {"OBJECT_NAME": "FENGYUN 1C DEB", "OBJECT_ID": "1999-025APG", "EPOCH": "2025-12-12T04:53:32.523360", "MEAN_MOTION": 14.29522733, "ECCENTRICITY": 0.00513514, "INCLINATION": 98.8086, "RA_OF_ASC_NODE": 81.5069, "ARG_OF_PERICENTER": 172.7845, "MEAN_ANOMALY": 216.2757, "EPHEMERIS_TYPE": 0, "CLASSIFICATION_TYPE": "U", "NORAD_CAT_ID": 30649, "ELEMENT_SET_NO": 999, "REV_AT_EPOCH": 97056, "BSTAR": 0.0031001304, "MEAN_MOTION_DOT": 8e-05, "MEAN_MOTION_DDOT": 0}, "tle": {"line1": "1 30649U 99025APG 25346.20384865  .00008000  00000+0  31001-2 0  9997", "line2": "2 30649  98.8086  81.5069 0051351 172.7845 216.2757 14.29522733970566"}}, "geometry": {"type": "Point", "coordinates": [100.58467264562812, -63.13251989873075]}}, {"type": "Feature", "properties": {"norad_id": 30650, "name": "FENGYUN 1C DEB", "group": "fengyun-1c-debris", "lat": -71.8009875060052, "lon": 178.5034014126579, "alt_km": 832.122937589701, "timestamp": "2025-12-13T10:41:26.043951+00:00", "meta": {"OBJECT_NAME": "FENGYUN 1C DEB", "OBJECT_ID": "1999-025APH", "EPOCH": "2025-12-12T01:22:10.167168", "MEAN_MOTION": 14.13928932, "ECCENTRICITY": 0.007221, "INCLINATION": 99.2045, "RA_OF_ASC_NODE": 26.6258, "ARG_OF_PERICENTER": 191.5082, "MEAN_ANOMALY": 198.757, "EPHEMERIS_TYPE": 0, "CLASSIFICATION_TYPE": "U", "NORAD_CAT_ID": 30650, "ELEMENT_SET_NO": 999, "REV_AT_EPOCH": 96289, "BSTAR": 0.0024164565, "MEAN_MOTION_DOT": 4.656e-05, "MEAN_MOTION_DDOT": 0}, "tle": {"line1": "1 30650U 99025APH 25346.05706212  .00004656  00000+0  24165-2 0  9992", "line2": "2 30650  99.2045  26.6258 0072210 191.5082 198.7570 14.13928932962895"}}, "geometry": {"type": "Point", "coordinates": [178.5034014126579, -71.8009875060052]}}, {"type": "Feature", "properties": {"norad_id": 30652, "name": "FENGYUN 1C DEB", "group": "fengyun-1c-debris", "lat": -58.558162367531594, "lon": 35.21018845832032, "alt_km": 869.7234124579936, "timestamp": "2025-12-13T10:41:26.043961+00:00", "meta": {"OBJECT_NAME": "FENGYUN 1C DEB", "OBJECT_ID": "1999-025APJ", "EPOCH": "2025-12-13T01:01:15.545856", "MEAN_MOTION": 14.0780501, "ECCENTRICITY": 0.0007348, "INCLINATION": 98.7853, "RA_OF_ASC_NODE": 20.1673, "ARG_OF_PERICENTER": 264.2609, "MEAN_ANOMALY": 155.2635, "EPHEMERIS_TYPE": 0, "CLASSIFICATION_TYPE": "U", "NORAD_CAT_ID": 30652, "ELEMENT_SET_NO": 999, "REV_AT_EPOCH": 96698, "BSTAR": 0.00022274835, "MEAN_MOTION_DOT": 3.34e-06, "MEAN_MOTION_DDOT": 0}, "tle": {"line1": "1 30652U 99025APJ 25347.04254104  .00000334  00000+0  22275-3 0  9992", "line2": "2 30652  98.7853  20.1673 0007348 264.2609 155.2635 14.07805010966989"}}, "geometry": {"type": "Point", "coordinates": [35.21018845832032, -58.558162367531594]}}, {"type": "Feature", "properties": {"norad_id": 30654, "name": "FENGYUN 1C DEB", "group": "fengyun-1c-debris", "lat": -29.814366139136784, "lon": -83.93488616102636, "alt_km": 855.4925951040841, "timestamp": "2025-12-13T10:41:26.043971+00:00", "meta": {"OBJECT_NAME": "FENGYUN 1C DEB", "OBJECT_ID": "1999-025APL", "EPOCH": "2025-12-12T17:53:16.701216", "MEAN_MOTION": 14.17098967, "ECCENTRICITY": 0.00352625, "INCLINATION": 99.2406, "RA_OF_ASC_NODE": 269.9852, "ARG_OF_PERICENTER": 96.6594, "MEAN_ANOMALY": 263.8594, "EPHEMERIS_TYPE": 0, "CLASSIFICATION_TYPE": "U", "NORAD_CAT_ID": 30654, "ELEMENT_SET_NO": 999, "REV_AT_EPOCH": 96680, "BSTAR": 0.0016889097, "MEAN_MOTION_DOT": 3.375e-05, "MEAN_MOTION_DDOT": 0}, "tle": {"line1": "1 30654U 99025APL 25346.74533219  .00003375  00000+0  16889-2 0  9998", "line2": "2 30654  99.2406 269.9852 0035262  96.6594 263.8594 14.17098967966806"}}, "geometry": {"type": "Point", "coordinates": [-83.93488616102636, -29.814366139136784]}}, {"type": "Feature", "properties": {"norad_id": 30656, "name": "FENGYUN 1C DEB", "group": "fengyun-1c-debris", "lat": -11.422226798893604, "lon": -20.252503243519424, "alt_km": 751.4637177484528, "timestamp": "2025-12-13T10:41:26.043981+00:00", "meta": {"OBJECT_NAME": "FENGYUN 1C DEB", "OBJECT_ID": "1999-025APN", "EPOCH": "2025-12-12T17:11:45.778848", "MEAN_MOTION": 14.45326884, "ECCENTRICITY": 0.0030254, "INCLINATION": 99.0185, "RA_OF_ASC_NODE": 160.8125, "ARG_OF_PERICENTER": 86.5117, "MEAN_ANOMALY": 273.9532, "EPHEMERIS_TYPE": 0, "CLASSIFICATION_TYPE": "U", "NORAD_CAT_ID": 30656, "ELEMENT_SET_NO": 999, "REV_AT_EPOCH": 97085, "BSTAR": 0.0037566235, "MEAN_MOTION_DOT": 0.00013247, "MEAN_MOTION_DDOT": 0}, "tle": {"line1": "1 30656U 99025APN 25346.71650207  .00013247  00000+0  37566-2 0  9998", "line2": "2 30656  99.0185 160.8125 0030254  86.5117 273.9532 14.45326884970854"}}, "geometry": {"type": "Point", "coordinates": [-20.252503243519424, -11.422226798893604]}}, {"type": "Feature", "properties": {"norad_id": 30657, "name": "FENGYUN 1C DEB", "group": "fengyun-1c-debris", "lat": -67.81979508333502, "lon": 107.91855060193303, "alt_km": 763.2258866100519, "timestamp": "2025-12-13T10:41:26.043992+00:00", "meta": {"OBJECT_NAME": "FENGYUN 1C DEB", "OBJECT_ID": "1999-025APP", "EPOCH": "2025-12-12T18:55:29.440416", "MEAN_MOTION": 14.38600658, "ECCENTRICITY": 0.00160407, "INCLINATION": 98.8339, "RA_OF_ASC_NODE": 84.819, "ARG_OF_PERICENTER": 344.2907, "MEAN_ANOMALY": 146.1652, "EPHEMERIS_TYPE": 0, "CLASSIFICATION_TYPE": "U", "NORAD_CAT_ID": 30657, "ELEMENT_SET_NO": 999, "REV_AT_EPOCH": 97233, "BSTAR": 0.0031682, "MEAN_MOTION_DOT": 9.68e-05, "MEAN_MOTION_DDOT": 0}, "tle": {"line1": "1 30657U 99025APP 25346.78853519  .00009680  00000+0  31682-2 0  9996", "line2": "2 30657  98.8339  84.8190 0016040 344.2907 146.1652 14.38600658972333"}}, "geometry": {"type": "Point", "coordinates": [107.91855060193303, -67.81979508333502]}}, {"type": "Feature", "properties": {"norad_id": 30658, "name": "FENGYUN 1C DEB", "group": "fengyun-1c-debris", "lat": 39.5123751169667, "lon": 12.783937877271235, "alt_km": 1069.2424619896137, "timestamp": "2025-12-13T10:41:26.044002+00:00", "meta": {"OBJECT_NAME": "FENGYUN 1C DEB", "OBJECT_ID": "1999-025APQ", "EPOCH": "2025-12-12T01:36:05.059008", "MEAN_MOTION": 13.87196336, "ECCENTRICITY": 0.01838687, "INCLINATION": 98.4402, "RA_OF_ASC_NODE": 18.5712, "ARG_OF_PERICENTER": 229.4011, "MEAN_ANOMALY": 129.1026, "EPHEMERIS_TYPE": 0, "CLASSIFICATION_TYPE": "U", "NORAD_CAT_ID": 30658, "ELEMENT_SET_NO": 999, "REV_AT_EPOCH": 94675, "BSTAR": 0.002601853, "MEAN_MOTION_DOT": 3.454e-05, "MEAN_MOTION_DDOT": 0}, "tle": {"line1": "1 30658U 99025APQ 25346.06672522  .00003454  00000+0  26019-2 0  9992", "line2": "2 30658  98.4402  18.5712 0183868 229.4011 129.1026 13.87196336946757"}}, "geometry": {"type": "Point", "coordinates": [12.783937877271235, 39.5123751169667]}}, {"type": "Feature", "properties": {"norad_id": 30660, "name": "FENGYUN 1C DEB", "group": "fengyun-1c-debris", "lat": 30.239338419230247, "lon": 79.13623966191145, "alt_km": 552.9076058428636, "timestamp": "2025-12-13T10:41:26.044012+00:00", "meta": {"OBJECT_NAME": "FENGYUN 1C DEB", "OBJECT_ID": "1999-025APS", "EPOCH": "2025-12-12T05:37:45.512256", "MEAN_MOTION": 14.87530336, "ECCENTRICITY": 0.01371097, "INCLINATION": 98.1386, "RA_OF_ASC_NODE": 82.6796, "ARG_OF_PERICENTER": 336.2392, "MEAN_ANOMALY": 52.5818, "EPHEMERIS_TYPE": 0, "CLASSIFICATION_TYPE": "U", "NORAD_CAT_ID": 30660, "ELEMENT_SET_NO": 999, "REV_AT_EPOCH": 777, "BSTAR": 0.00095764251, "MEAN_MOTION_DOT": 0.00010277, "MEAN_MOTION_DDOT": 0}, "tle": {"line1": "1 30660U 99025APS 25346.23455454  .00010277  00000+0  95764-3 0  9992", "line2": "2 30660  98.1386  82.6796 0137109 336.2392  52.5818 14.87530336  7779"}}, "geometry": {"type": "Point", "coordinates": [79.13623966191145, 30.239338419230247]}}, {"type": "Feature", "properties": {"norad_id": 30661, "name": "FENGYUN 1C DEB", "group": "fengyun-1c-debris", "lat": -80.50211210236732, "lon": -104.9593364023142, "alt_km": 900.3255116296023, "timestamp": "2025-12-13T10:41:26.044022+00:00", "meta": {"OBJECT_NAME": "FENGYUN 1C DEB", "OBJECT_ID": "1999-025APT", "EPOCH": "2025-12-12T18:13:03.820800", "MEAN_MOTION": 14.21142217, "ECCENTRICITY": 0.0144733, "INCLINATION": 99.487, "RA_OF_ASC_NODE": 162.4378, "ARG_OF_PERICENTER": 45.5664, "MEAN_ANOMALY": 315.7248, "EPHEMERIS_TYPE": 0, "CLASSIFICATION_TYPE": "U", "NORAD_CAT_ID": 30661, "ELEMENT_SET_NO": 999, "REV_AT_EPOCH": 97902, "BSTAR": 0.00017969158, "MEAN_MOTION_DOT": 3.84e-06, "MEAN_MOTION_DDOT": 0}, "tle": {"line1": "1 30661U 99025APT 25346.75907200  .00000384  00000+0  17969-3 0  9990", "line2": "2 30661  99.4870 162.4378 0144733  45.5664 315.7248 14.21142217979020"}}, "geometry": {"type": "Point", "coordinates": [-104.9593364023142, -80.50211210236732]}}]}